start=new Date('2023-02-14T00:00:00.000Z').valueOf();
sats=[{"GP_ID":"225337733","TLE_LINE1":"1 53412U 22097AA  23044.84393699 -.00000379  00000-0 -57176-5 0  9991","CENTER_NAME":"EARTH","SEMIMAJOR_AXIS":"6917.889","EPHEMERIS_TYPE":"0","MEAN_ANOMALY":"250.0279","APOAPSIS":"540.998","REV_AT_EPOCH":"2910","EPOCH":"2023-02-13T20:15:16.155936","REF_FRAME":"TEME","NORAD_CAT_ID":"53412","OBJECT_ID":"2022-097AA","INCLINATION":"53.2168","SITE":"AFETR","FILE":"3789750","OBJECT_TYPE":"PAYLOAD","LAUNCH_DATE":"2022-08-10","MEAN_MOTION":"15.08837082","RCS_SIZE":"LARGE","MEAN_MOTION_DDOT":"0.0000000000000","BSTAR":"-0.00000571760000","ECCENTRICITY":"0.00017980","RA_OF_ASC_NODE":"101.2992","MEAN_MOTION_DOT":"-0.00000379","ELEMENT_SET_NO":"999","OBJECT_NAME":"STARLINK-4496","PERIOD":"95.438","ARG_OF_PERICENTER":"110.0906","TLE_LINE2":"2 53412  53.2168 101.2992 0001798 110.0906 250.0279 15.08837082 29107","TIME_SYSTEM":"UTC","COUNTRY_CODE":"US","PERIAPSIS":"538.510","MEAN_ELEMENT_THEORY":"SGP4","CLASSIFICATION_TYPE":"U","DECAY_DATE":null},{"PERIOD":"95.436","ARG_OF_PERICENTER":"102.9497","TLE_LINE2":"2 53413  53.2165 103.0561 0001212 102.9497 257.1631 15.08863359 29536","MEAN_MOTION_DOT":"0.00039730","ELEMENT_SET_NO":"999","OBJECT_NAME":"STARLINK-4500","DECAY_DATE":null,"COUNTRY_CODE":"US","TIME_SYSTEM":"UTC","PERIAPSIS":"538.836","MEAN_ELEMENT_THEORY":"SGP4","CLASSIFICATION_TYPE":"U","OBJECT_TYPE":"PAYLOAD","LAUNCH_DATE":"2022-08-10","MEAN_MOTION":"15.08863359","RCS_SIZE":"LARGE","MEAN_MOTION_DDOT":"0.0000000000000","FILE":"3789366","SITE":"AFETR","RA_OF_ASC_NODE":"103.0561","BSTAR":"0.00249880000000","ECCENTRICITY":"0.00012120","REF_FRAME":"TEME","NORAD_CAT_ID":"53413","REV_AT_EPOCH":"2953","APOAPSIS":"540.512","EPOCH":"2023-02-13T10:53:33.104832","INCLINATION":"53.2165","OBJECT_ID":"2022-097AB","EPHEMERIS_TYPE":"0","MEAN_ANOMALY":"257.1631","GP_ID":"225326607","TLE_LINE1":"1 53413U 22097AB  23044.45385538  .00039730  00000-0  24988-2 0  9995","SEMIMAJOR_AXIS":"6917.809","CENTER_NAME":"EARTH"},{"ECCENTRICITY":"0.00035080","BSTAR":"-0.00000200140000","RA_OF_ASC_NODE":"102.5126","SITE":"AFETR","FILE":"3789366","MEAN_MOTION":"15.08816620","RCS_SIZE":"LARGE","MEAN_MOTION_DDOT":"0.0000000000000","OBJECT_TYPE":"PAYLOAD","LAUNCH_DATE":"2022-08-10","CLASSIFICATION_TYPE":"U","MEAN_ELEMENT_THEORY":"SGP4","PERIAPSIS":"537.390","TIME_SYSTEM":"UTC","COUNTRY_CODE":"US","DECAY_DATE":null,"OBJECT_NAME":"STARLINK-4304","ELEMENT_SET_NO":"999","MEAN_MOTION_DOT":"-0.00000321","TLE_LINE2":"2 53414  53.2179 102.5126 0003508  20.2808 339.8322 15.08816620 29546","ARG_OF_PERICENTER":"20.2808","PERIOD":"95.439","SEMIMAJOR_AXIS":"6917.952","CENTER_NAME":"EARTH","TLE_LINE1":"1 53414U 22097AC  23044.57528775 -.00000321  00000-0 -20014-5 0  9996","GP_ID":"225326630","MEAN_ANOMALY":"339.8322","EPHEMERIS_TYPE":"0","INCLINATION":"53.2179","OBJECT_ID":"2022-097AC","EPOCH":"2023-02-13T13:48:24.861600","APOAPSIS":"542.244","REV_AT_EPOCH":"2954","NORAD_CAT_ID":"53414","REF_FRAME":"TEME"},{"OBJECT_ID":"2022-097AD","INCLINATION":"53.2179","APOAPSIS":"540.711","REV_AT_EPOCH":"2952","EPOCH":"2023-02-13T13:43:07.320000","REF_FRAME":"TEME","NORAD_CAT_ID":"53415","GP_ID":"225326880","TLE_LINE1":"1 53415U 22097AD  23044.57161250  .00004619  00000-0  30802-3 0  9994","CENTER_NAME":"EARTH","SEMIMAJOR_AXIS":"6917.836","EPHEMERIS_TYPE":"0","MEAN_ANOMALY":"279.3129","TIME_SYSTEM":"UTC","COUNTRY_CODE":"US","MEAN_ELEMENT_THEORY":"SGP4","PERIAPSIS":"538.691","CLASSIFICATION_TYPE":"U","DECAY_DATE":null,"MEAN_MOTION_DOT":"0.00004619","ELEMENT_SET_NO":"999","OBJECT_NAME":"STARLINK-4479","PERIOD":"95.437","ARG_OF_PERICENTER":"80.8028","TLE_LINE2":"2 53415  53.2179 102.5303 0001460  80.8028 279.3129 15.08854499 29522","BSTAR":"0.00030802000000","ECCENTRICITY":"0.00014600","RA_OF_ASC_NODE":"102.5303","FILE":"3789366","SITE":"AFETR","LAUNCH_DATE":"2022-08-10","OBJECT_TYPE":"PAYLOAD","RCS_SIZE":"LARGE","MEAN_MOTION_DDOT":"0.0000000000000","MEAN_MOTION":"15.08854499"},{"SEMIMAJOR_AXIS":"6917.810","CENTER_NAME":"EARTH","TLE_LINE1":"1 53416U 22097AE  23044.42905261  .00021794  00000-0  13823-2 0  9993","GP_ID":"225328131","MEAN_ANOMALY":"269.5858","EPHEMERIS_TYPE":"0","EPOCH":"2023-02-13T10:17:50.145504","REV_AT_EPOCH":"2950","APOAPSIS":"540.996","NORAD_CAT_ID":"53416","REF_FRAME":"TEME","OBJECT_ID":"2022-097AE","INCLINATION":"53.2168","FILE":"3789366","SITE":"AFETR","MEAN_MOTION":"15.08862896","RCS_SIZE":"LARGE","MEAN_MOTION_DDOT":"0.0000000000000","LAUNCH_DATE":"2022-08-10","OBJECT_TYPE":"PAYLOAD","ECCENTRICITY":"0.00019090","BSTAR":"0.00138230000000","RA_OF_ASC_NODE":"103.1691","OBJECT_NAME":"STARLINK-4480","ELEMENT_SET_NO":"999","MEAN_MOTION_DOT":"0.00021794","TLE_LINE2":"2 53416  53.2168 103.1691 0001909  90.5353 269.5858 15.08862896 29503","ARG_OF_PERICENTER":"90.5353","PERIOD":"95.436","CLASSIFICATION_TYPE":"U","MEAN_ELEMENT_THEORY":"SGP4","PERIAPSIS":"538.355","TIME_SYSTEM":"UTC","COUNTRY_CODE":"US","DECAY_DATE":null},{"OBJECT_TYPE":"PAYLOAD","LAUNCH_DATE":"2022-08-10","MEAN_MOTION":"15.08856452","RCS_SIZE":"LARGE","MEAN_MOTION_DDOT":"0.0000000000000","FILE":"3789366","SITE":"AFETR","RA_OF_ASC_NODE":"105.5119","BSTAR":"-0.00007259400000","ECCENTRICITY":"0.00014150","PERIOD":"95.437","ARG_OF_PERICENTER":"108.6592","TLE_LINE2":"2 53417  53.2163 105.5119 0001415 108.6592 251.4554 15.08856452 29423","MEAN_MOTION_DOT":"-0.00001444","ELEMENT_SET_NO":"999","OBJECT_NAME":"STARLINK-4484","DECAY_DATE":null,"COUNTRY_CODE":"US","TIME_SYSTEM":"UTC","PERIAPSIS":"538.716","MEAN_ELEMENT_THEORY":"SGP4","CLASSIFICATION_TYPE":"U","EPHEMERIS_TYPE":"0","MEAN_ANOMALY":"251.4554","GP_ID":"225327107","TLE_LINE1":"1 53417U 22097AF  23043.90552350 -.00001444  00000-0 -72594-4 0  9997","SEMIMAJOR_AXIS":"6917.830","CENTER_NAME":"EARTH","REF_FRAME":"TEME","NORAD_CAT_ID":"53417","APOAPSIS":"540.674","REV_AT_EPOCH":"2942","EPOCH":"2023-02-12T21:43:57.230400","INCLINATION":"53.2163","OBJECT_ID":"2022-097AF"},{"OBJECT_TYPE":"PAYLOAD","LAUNCH_DATE":"2022-08-10","RCS_SIZE":"LARGE","MEAN_MOTION":"15.08851947","MEAN_MOTION_DDOT":"0.0000000000000","SITE":"AFETR","FILE":"3789366","RA_OF_ASC_NODE":"92.2899","BSTAR":"0.00025249000000","ECCENTRICITY":"0.00012980","ARG_OF_PERICENTER":"107.9264","PERIOD":"95.437","TLE_LINE2":"2 53418  53.2143  92.2899 0001298 107.9264 252.1869 15.08851947 29696","ELEMENT_SET_NO":"999","MEAN_MOTION_DOT":"0.00003734","OBJECT_NAME":"STARLINK-4481","DECAY_DATE":null,"COUNTRY_CODE":"US","TIME_SYSTEM":"UTC","CLASSIFICATION_TYPE":"U","PERIAPSIS":"538.811","MEAN_ELEMENT_THEORY":"SGP4","EPHEMERIS_TYPE":"0","MEAN_ANOMALY":"252.1869","TLE_LINE1":"1 53418U 22097AG  23044.52831919  .00003734  00000-0  25249-3 0  9994","GP_ID":"225327130","CENTER_NAME":"EARTH","SEMIMAJOR_AXIS":"6917.844","REF_FRAME":"TEME","NORAD_CAT_ID":"53418","APOAPSIS":"540.607","REV_AT_EPOCH":"2969","EPOCH":"2023-02-13T12:40:46.778016","INCLINATION":"53.2143","OBJECT_ID":"2022-097AG"},{"MEAN_ANOMALY":"260.4952","EPHEMERIS_TYPE":"0","CENTER_NAME":"EARTH","SEMIMAJOR_AXIS":"6917.850","GP_ID":"225327380","TLE_LINE1":"1 53419U 22097AH  23044.56425124  .00003234  00000-0  22114-3 0  9999","NORAD_CAT_ID":"53419","REF_FRAME":"TEME","EPOCH":"2023-02-13T13:32:31.307136","REV_AT_EPOCH":"2952","APOAPSIS":"540.886","OBJECT_ID":"2022-097AH","INCLINATION":"53.2136","RCS_SIZE":"LARGE","MEAN_MOTION":"15.08850100","MEAN_MOTION_DDOT":"0.0000000000000","LAUNCH_DATE":"2022-08-10","OBJECT_TYPE":"PAYLOAD","FILE":"3789366","SITE":"AFETR","RA_OF_ASC_NODE":"102.5627","ECCENTRICITY":"0.00016930","BSTAR":"0.00022114000000","TLE_LINE2":"2 53419  53.2136 102.5627 0001693  99.6232 260.4952 15.08850100 29521","PERIOD":"95.437","ARG_OF_PERICENTER":"99.6232","OBJECT_NAME":"STARLINK-4476","MEAN_MOTION_DOT":"0.00003234","ELEMENT_SET_NO":"999","DECAY_DATE":null,"PERIAPSIS":"538.543","MEAN_ELEMENT_THEORY":"SGP4","CLASSIFICATION_TYPE":"U","TIME_SYSTEM":"UTC","COUNTRY_CODE":"US"},{"CENTER_NAME":"EARTH","SEMIMAJOR_AXIS":"6917.882","TLE_LINE1":"1 53420U 22097AJ  23044.42073811  .00001343  00000-0  10248-3 0  9992","GP_ID":"225337724","MEAN_ANOMALY":"273.4113","EPHEMERIS_TYPE":"0","INCLINATION":"53.2155","OBJECT_ID":"2022-097AJ","EPOCH":"2023-02-13T10:05:51.772704","APOAPSIS":"540.726","REV_AT_EPOCH":"2904","NORAD_CAT_ID":"53420","REF_FRAME":"TEME","ECCENTRICITY":"0.00014140","BSTAR":"0.00010248000000","RA_OF_ASC_NODE":"103.2124","FILE":"3789750","SITE":"AFETR","RCS_SIZE":"LARGE","MEAN_MOTION":"15.08839336","MEAN_MOTION_DDOT":"0.0000000000000","LAUNCH_DATE":"2022-08-10","OBJECT_TYPE":"PAYLOAD","CLASSIFICATION_TYPE":"U","PERIAPSIS":"538.769","MEAN_ELEMENT_THEORY":"SGP4","COUNTRY_CODE":"US","TIME_SYSTEM":"UTC","DECAY_DATE":null,"OBJECT_NAME":"STARLINK-4552","ELEMENT_SET_NO":"999","MEAN_MOTION_DOT":"0.00001343","TLE_LINE2":"2 53420  53.2155 103.2124 0001414  86.7041 273.4113 15.08839336 29048","ARG_OF_PERICENTER":"86.7041","PERIOD":"95.438"},{"MEAN_ANOMALY":"286.7540","EPHEMERIS_TYPE":"0","SEMIMAJOR_AXIS":"6916.087","CENTER_NAME":"EARTH","TLE_LINE1":"1 53421U 22097AK  23044.42695440  .00049215  00000-0  30397-2 0  9997","GP_ID":"225326608","INCLINATION":"53.2158","OBJECT_ID":"2022-097AK","NORAD_CAT_ID":"53421","REF_FRAME":"TEME","EPOCH":"2023-02-13T10:14:48.860160","APOAPSIS":"539.040","REV_AT_EPOCH":"2950","RA_OF_ASC_NODE":"103.1686","ECCENTRICITY":"0.00015730","BSTAR":"0.00303970000000","MEAN_MOTION":"15.09426955","RCS_SIZE":"LARGE","MEAN_MOTION_DDOT":"0.0000000000000","LAUNCH_DATE":"2022-08-10","OBJECT_TYPE":"PAYLOAD","SITE":"AFETR","FILE":"3789366","DECAY_DATE":null,"CLASSIFICATION_TYPE":"U","PERIAPSIS":"536.864","MEAN_ELEMENT_THEORY":"SGP4","TIME_SYSTEM":"UTC","COUNTRY_CODE":"US","TLE_LINE2":"2 53421  53.2158 103.1686 0001573  73.3625 286.7540 15.09426955 29502","ARG_OF_PERICENTER":"73.3625","PERIOD":"95.400","OBJECT_NAME":"STARLINK-4545","MEAN_MOTION_DOT":"0.00049215","ELEMENT_SET_NO":"999"}];
